STARLINK-35807          
1 66358U 25254L   26068.74655108  .00025894  00000+0  88350-3 0  9998
2 66358  53.1576 232.2430 0000905  70.7680 289.3418 15.30194012 18982
KUIPER-00175            
1 67135U 25301C   26068.97960463  .00019968  00000+0  66732-3 0  9998
2 67135  51.8781  63.6978 0002279  50.5695 309.5490 15.30996371 13854
